[{"OBJECT_NAME":"YAOGAN-35 03B","OBJECT_ID":"2022-088C","EPOCH":"2026-03-09T13:03:21.256992","MEAN_MOTION":15.23107662,"ECCENTRICITY":0.0013847,"INCLINATION":34.988,"RA_OF_ASC_NODE":116.4068,"ARG_OF_PERICENTER":202.6301,"MEAN_ANOMALY":157.3803,"EPHEMERIS_TYPE":0,"CLASSIFICATION_TYPE":"U","NORAD_CAT_ID":53318,"ELEMENT_SET_NO":999,"REV_AT_EPOCH":20113,"BSTAR":0.00044045,"MEAN_MOTION_DOT":0.00010651,"MEAN_MOTION_DDOT":0},{"OBJECT_NAME":"TRANSPORTER-15 OBJECT H","OBJECT_ID":"2025-276H","EPOCH":"2026-03-09T17:32:53.221056","MEAN_MOTION":15.1998776,"ECCENTRICITY":0.00060412,"INCLINATION":97.4225,"RA_OF_ASC_NODE":143.9657,"ARG_OF_PERICENTER":14.2077,"MEAN_ANOMALY":345.9327,"EPHEMERIS_TYPE":0,"CLASSIFICATION_TYPE":"U","NORAD_CAT_ID":66673,"ELEMENT_SET_NO":999,"REV_AT_EPOCH":1532,"BSTAR":0.00046258032,"MEAN_MOTION_DOT":9.902e-5,"MEAN_MOTION_DDOT":0}]
